{
  "norad_id": 50476,
  "name": "ONEWEB-0396",
  "history": [
    {
      "epoch": "2026-03-28T17:42:45.976032Z",
      "apogee_km": 1190.994028211282,
      "perigee_km": 1188.4730191824274,
      "latitude_deg": -5.834346641973644e-05,
      "longitude_deg": -100.40604242776871,
      "height_km": 1192.3971023811882,
      "semi_major_axis_km": 7567.870523696854,
      "eccentricity": 0.00016656,
      "inclination_deg": 87.925,
      "raan_deg": 351.4397,
      "arg_perigee_deg": 79.3102,
      "mean_anomaly_deg": 280.8217,
      "mean_motion_rev_day": 13.1868851
    },
    {
      "epoch": "2026-03-29T04:38:20.282784Z",
      "apogee_km": 1190.9911766217738,
      "perigee_km": 1188.474103179543,
      "latitude_deg": -4.515228733391477e-05,
      "longitude_deg": 95.16209030559222,
      "height_km": 1192.4022483884798,
      "semi_major_axis_km": 7567.869639900658,
      "eccentricity": 0.0001663,
      "inclination_deg": 87.9249,
      "raan_deg": 351.3495,
      "arg_perigee_deg": 79.5725,
      "mean_anomaly_deg": 280.5594,
      "mean_motion_rev_day": 13.18688741
    },
    {
      "epoch": "2026-03-30T04:18:44.618112Z",
      "apogee_km": 1190.961676889614,
      "perigee_km": 1188.5083241444872,
      "latitude_deg": -3.653443173263837e-05,
      "longitude_deg": 98.89286095483583,
      "height_km": 1192.3986047286182,
      "semi_major_axis_km": 7567.872000517051,
      "eccentricity": 0.00016209,
      "inclination_deg": 87.9245,
      "raan_deg": 351.1539,
      "arg_perigee_deg": 79.0096,
      "mean_anomaly_deg": 281.1218,
      "mean_motion_rev_day": 13.18688124
    },
    {
      "epoch": "2026-03-30T11:35:47.501088Z",
      "apogee_km": 1190.9614421775468,
      "perigee_km": 1188.507181511116,
      "latitude_deg": -5.651214992560045e-05,
      "longitude_deg": -10.728400574891166,
      "height_km": 1192.4022978653059,
      "semi_major_axis_km": 7567.871311844331,
      "eccentricity": 0.00016215,
      "inclination_deg": 87.9245,
      "raan_deg": 351.0938,
      "arg_perigee_deg": 79.222,
      "mean_anomaly_deg": 280.9094,
      "mean_motion_rev_day": 13.18688304
    },
    {
      "epoch": "2026-03-30T18:52:50.416896Z",
      "apogee_km": 1190.958629800144,
      "perigee_km": 1188.5139040200002,
      "latitude_deg": 1.5656580238147993e-05,
      "longitude_deg": -120.34979595667744,
      "height_km": 1192.4048462164849,
      "semi_major_axis_km": 7567.873266910072,
      "eccentricity": 0.00016152,
      "inclination_deg": 87.9245,
      "raan_deg": 351.0337,
      "arg_perigee_deg": 79.2078,
      "mean_anomaly_deg": 280.9236,
      "mean_motion_rev_day": 13.18687793
    },
    {
      "epoch": "2026-03-31T11:16:11.831232Z",
      "apogee_km": 1190.9676261170307,
      "perigee_km": 1188.4991381557857,
      "latitude_deg": 1.333609297611011e-06,
      "longitude_deg": -6.997505852235102,
      "height_km": 1192.4129944912897,
      "semi_major_axis_km": 7567.870382136408,
      "eccentricity": 0.00016309,
      "inclination_deg": 87.9244,
      "raan_deg": 350.8983,
      "arg_perigee_deg": 79.835,
      "mean_anomaly_deg": 280.2966,
      "mean_motion_rev_day": 13.18688547
    },
    {
      "epoch": "2026-04-01T10:56:36.201984Z",
      "apogee_km": 1190.9698438058967,
      "perigee_km": 1188.4996904611035,
      "latitude_deg": -2.6370332708376105e-05,
      "longitude_deg": -3.266783827169047,
      "height_km": 1192.4198517225184,
      "semi_major_axis_km": 7567.8717671335,
      "eccentricity": 0.0001632,
      "inclination_deg": 87.9244,
      "raan_deg": 350.7028,
      "arg_perigee_deg": 80.0997,
      "mean_anomaly_deg": 280.0319,
      "mean_motion_rev_day": 13.18688185
    },
    {
      "epoch": "2026-04-02T10:37:00.532992Z",
      "apogee_km": 1190.9823953092346,
      "perigee_km": 1188.4810633368197,
      "latitude_deg": -8.471630590238714e-05,
      "longitude_deg": 0.4641028190284353,
      "height_km": 1192.4239043064138,
      "semi_major_axis_km": 7567.868729323027,
      "eccentricity": 0.00016526,
      "inclination_deg": 87.9243,
      "raan_deg": 350.5073,
      "arg_perigee_deg": 80.5551,
      "mean_anomaly_deg": 279.5767,
      "mean_motion_rev_day": 13.18688979
    },
    {
      "epoch": "2026-04-02T23:21:50.577120Z",
      "apogee_km": 1190.9827163283908,
      "perigee_km": 1188.4819895794017,
      "latitude_deg": 1.762858028147784e-05,
      "longitude_deg": 168.62687936243765,
      "height_km": 1192.4256373849103,
      "semi_major_axis_km": 7567.869352953896,
      "eccentricity": 0.00016522,
      "inclination_deg": 87.9244,
      "raan_deg": 350.4021,
      "arg_perigee_deg": 80.605,
      "mean_anomaly_deg": 279.5269,
      "mean_motion_rev_day": 13.18688816
    },
    {
      "epoch": "2026-04-03T17:34:27.732288Z",
      "apogee_km": 1190.977376679306,
      "perigee_km": 1188.484520976961,
      "latitude_deg": 7.732019273647855e-05,
      "longitude_deg": -105.42620302539781,
      "height_km": 1192.4246294281227,
      "semi_major_axis_km": 7567.867948828133,
      "eccentricity": 0.0001647,
      "inclination_deg": 87.9241,
      "raan_deg": 350.2517,
      "arg_perigee_deg": 80.5936,
      "mean_anomaly_deg": 279.5383,
      "mean_motion_rev_day": 13.18689183
    },
    {
      "epoch": "2026-04-04T06:19:17.702976Z",
      "apogee_km": 1190.9704316210928,
      "perigee_km": 1188.4884741392061,
      "latitude_deg": 5.371689553606237e-05,
      "longitude_deg": 62.736775172845554,
      "height_km": 1192.4259587245588,
      "semi_major_axis_km": 7567.866452880149,
      "eccentricity": 0.00016398,
      "inclination_deg": 87.924,
      "raan_deg": 350.1464,
      "arg_perigee_deg": 80.6834,
      "mean_anomaly_deg": 279.4484,
      "mean_motion_rev_day": 13.18689574
    },
    {
      "epoch": "2026-04-05T09:38:13.722144Z",
      "apogee_km": 1190.9612752356607,
      "perigee_km": 1188.5160946018632,
      "latitude_deg": 2.3999046093311234e-05,
      "longitude_deg": 11.65604925832352,
      "height_km": 1192.439981494821,
      "semi_major_axis_km": 7567.875684918761,
      "eccentricity": 0.00016155,
      "inclination_deg": 87.9237,
      "raan_deg": 349.9209,
      "arg_perigee_deg": 80.7676,
      "mean_anomaly_deg": 279.3639,
      "mean_motion_rev_day": 13.18687161
    },
    {
      "epoch": "2026-04-05T16:55:16.733856Z",
      "apogee_km": 1190.9629896613205,
      "perigee_km": 1188.524618466251,
      "latitude_deg": -2.6690093602578064e-05,
      "longitude_deg": -97.96575214239206,
      "height_km": 1192.4462092198069,
      "semi_major_axis_km": 7567.880804063786,
      "eccentricity": 0.0001611,
      "inclination_deg": 87.9238,
      "raan_deg": 349.8608,
      "arg_perigee_deg": 80.7937,
      "mean_anomaly_deg": 279.3377,
      "mean_motion_rev_day": 13.18685823
    },
    {
      "epoch": "2026-04-06T02:01:35.311008Z",
      "apogee_km": 1190.9658172989039,
      "perigee_km": 1188.5151872061242,
      "latitude_deg": 6.36181024119011e-05,
      "longitude_deg": 125.00770993012092,
      "height_km": 1192.4495292831975,
      "semi_major_axis_km": 7567.877502252513,
      "eccentricity": 0.00016191,
      "inclination_deg": 87.9237,
      "raan_deg": 349.7856,
      "arg_perigee_deg": 81.155,
      "mean_anomaly_deg": 278.9766,
      "mean_motion_rev_day": 13.18686686
    },
    {
      "epoch": "2026-04-07T05:20:31.353504Z",
      "apogee_km": 1190.982923951734,
      "perigee_km": 1188.512917671279,
      "latitude_deg": -2.41847638097102e-05,
      "longitude_deg": 73.92678294879069,
      "height_km": 1192.4742718784698,
      "semi_major_axis_km": 7567.884920811506,
      "eccentricity": 0.00016319,
      "inclination_deg": 87.9234,
      "raan_deg": 349.56,
      "arg_perigee_deg": 82.0381,
      "mean_anomaly_deg": 278.0936,
      "mean_motion_rev_day": 13.18684747
    },
    {
      "epoch": "2026-04-07T18:05:21.547104Z",
      "apogee_km": 1190.9867709032833,
      "perigee_km": 1188.5135853734682,
      "latitude_deg": -7.359533965731347e-05,
      "longitude_deg": -117.91127241408398,
      "height_km": 1192.488588633302,
      "semi_major_axis_km": 7567.887178138376,
      "eccentricity": 0.0001634,
      "inclination_deg": 87.9235,
      "raan_deg": 349.4546,
      "arg_perigee_deg": 82.6121,
      "mean_anomaly_deg": 277.5196,
      "mean_motion_rev_day": 13.18684157
    },
    {
      "epoch": "2026-04-08T14:07:14.647008Z",
      "apogee_km": 1190.995850581815,
      "perigee_km": 1188.5001134724416,
      "latitude_deg": 3.949672092081768e-05,
      "longitude_deg": -59.37068152258065,
      "height_km": 1192.4943317406808,
      "semi_major_axis_km": 7567.884982027128,
      "eccentricity": 0.00016489,
      "inclination_deg": 87.9232,
      "raan_deg": 349.2891,
      "arg_perigee_deg": 83.0487,
      "mean_anomaly_deg": 277.0833,
      "mean_motion_rev_day": 13.18684731
    },
    {
      "epoch": "2026-04-09T10:09:07.769376Z",
      "apogee_km": 1191.0009155583593,
      "perigee_km": 1188.496096813521,
      "latitude_deg": -2.8696160741279856e-05,
      "longitude_deg": -0.830290990130591,
      "height_km": 1192.4941042141636,
      "semi_major_axis_km": 7567.885506185939,
      "eccentricity": 0.00016549,
      "inclination_deg": 87.9232,
      "raan_deg": 349.1235,
      "arg_perigee_deg": 83.0394,
      "mean_anomaly_deg": 277.0926,
      "mean_motion_rev_day": 13.18684594
    },
    {
      "epoch": "2026-04-10T09:49:32.352672Z",
      "apogee_km": 1190.9958238220206,
      "perigee_km": 1188.5014487163053,
      "latitude_deg": -4.8944842370026276e-05,
      "longitude_deg": 2.899439316697441,
      "height_km": 1192.4941404110707,
      "semi_major_axis_km": 7567.885636269162,
      "eccentricity": 0.0001648,
      "inclination_deg": 87.9231,
      "raan_deg": 348.9279,
      "arg_perigee_deg": 83.0051,
      "mean_anomaly_deg": 277.1268,
      "mean_motion_rev_day": 13.1868456
    }
  ]
}